NORAD_CAT_ID,OBJECT_NAME,OBJECT_TYPE,EPOCH,MEAN_MOTION,ECCENTRICITY,INCLINATION,RA_OF_ASC_NODE,ARG_OF_PERICENTER,MEAN_ANOMALY,BSTAR,MEAN_MOTION_DOT,MEAN_MOTION_DDOT,TLE_LINE0,TLE_LINE1,TLE_LINE2,SEMIMAJOR_AXIS,PERIOD,APOGEE,PERIGEE,DECAYED
53282.0,STARLINK-4164,PAYLOAD,2024-05-09 04:37:29,15.08843235,0.0001147,53.2148,309.6116,87.5802,272.5321,0.00021654,3.16e-05,0.0,0 STARLINK-4164,1 53282U 22086AS  24130.19270417  .00003160  00000-0  21654-3 0  9990,2 53282  53.2148 309.6116 0001147  87.5802 272.5321 15.08843235 99957,6917.871,95.437,540.529,538.942,0.0
53282.0,STARLINK-4164,PAYLOAD,2024-05-09 18:55:57,15.08847182,0.0001198,53.2166,306.9361,97.2286,262.8842,0.00028616,4.27e-05,0.0,0 STARLINK-4164,1 53282U 22086AS  24130.78886422  .00004270  00000-0  28616-3 0  9992,2 53282  53.2166 306.9361 0001198  97.2286 262.8842 15.08847182100216,6917.858,95.437,540.552,538.895,0.0
53282.0,STARLINK-4164,PAYLOAD,2024-05-10 04:28:16,15.0884803,0.0001184,53.2159,305.1519,96.904,263.2087,0.00023293,3.422e-05,0.0,0 STARLINK-4164,1 53282U 22086AS  24131.18630268  .00003422  00000-0  23293-3 0  9996,2 53282  53.2159 305.1519 0001184  96.9040 263.2087 15.08848030100278,6917.856,95.437,540.54,538.902,0.0
53282.0,STARLINK-4164,PAYLOAD,2024-05-10 20:22:08,15.08842719,0.0001465,53.2167,302.1757,85.7226,274.3933,0.00013189,1.812e-05,0.0,0 STARLINK-4164,1 53282U 22086AS  24131.84870675  .00001812  00000-0  13189-3 0  9991,2 53282  53.2167 302.1757 0001465  85.7226 274.3933 15.08842719100206,6917.872,95.437,540.751,538.724,0.0
53282.0,STARLINK-4164,PAYLOAD,2024-05-10 21:57:30,15.08863495,0.0001863,53.2155,301.8772,41.1706,318.9427,0.00055977,8.638e-05,0.0,0 STARLINK-4164,1 53282U 22086AS  24131.91493873  .00008638  00000-0  55977-3 0  9994,2 53282  53.2155 301.8772 0001863  41.1706 318.9427 15.08863495100383,6917.809,95.436,540.962,538.385,0.0
53282.0,STARLINK-4164,PAYLOAD,2024-05-11 20:12:53,15.08832692,0.0001781,53.2159,297.7173,95.3258,264.7937,-0.001044,-0.00016862,0.0,0 STARLINK-4164,1 53282U 22086AS  24132.84228578 -.00016862  00000-0 -10440-2 0  9990,2 53282  53.2159 297.7173 0001781  95.3258 264.7937 15.08832692100353,6917.903,95.438,541.0,538.536,0.0
53282.0,STARLINK-4164,PAYLOAD,2024-05-12 04:09:51,15.08758992,0.0003008,53.2162,296.23,80.6722,279.461,-0.0026236,-0.00041713,0.0,0 STARLINK-4164,1 53282U 22086AS  24133.17351717 -.00041713  00000-0 -26236-2 0  9992,2 53282  53.2162 296.2300 0003008  80.6722 279.4610 15.08758992100407,6918.128,95.443,542.074,537.912,0.0
53282.0,STARLINK-4164,PAYLOAD,2024-05-12 10:31:25,15.08741771,0.0003081,53.2152,295.0431,77.9432,282.1906,-0.0025532,-0.00040589,0.0,0 STARLINK-4164,1 53282U 22086AS  24133.43849436 -.00040589  00000-0 -25532-2 0  9999,2 53282  53.2152 295.0431 0003081  77.9432 282.1906 15.08741771100615,6918.181,95.444,542.177,537.914,0.0
53282.0,STARLINK-4164,PAYLOAD,2024-05-12 18:28:24,15.08694125,0.0001478,53.2162,293.5541,84.3048,275.8113,-0.0026133,-0.00041474,0.0,0 STARLINK-4164,1 53282U 22086AS  24133.76972884 -.00041474  00000-0 -26133-2 0  9991,2 53282  53.2162 293.5541 0001478  84.3048 275.8113 15.08694125100499,6918.326,95.447,541.214,539.169,0.0
53282.0,STARLINK-4164,PAYLOAD,2024-05-13 04:00:44,15.08758147,8.84e-05,53.2171,291.7691,114.97,245.1384,0.00063288,9.776e-05,0.0,0 STARLINK-4164,1 53282U 22086AS  24134.16717948  .00009776  00000-0  63288-3 0  9994,2 53282  53.2171 291.7691 0000884 114.9700 245.1384 15.08758147100552,6918.131,95.443,540.607,539.384,0.0
53282.0,STARLINK-4164,PAYLOAD,2024-05-13 10:22:17,15.08796086,4.42e-05,53.2176,290.5791,124.6914,235.412,0.0020391,0.00032274,0.0,0 STARLINK-4164,1 53282U 22086AS  24134.43214451  .00032274  00000-0  20391-2 0  9991,2 53282  53.2176 290.5791 0000442 124.6914 235.4120 15.08796086100598,6918.015,95.44,540.185,539.574,0.0
53282.0,STARLINK-4164,PAYLOAD,2024-05-13 19:54:36,15.08835484,0.0001323,53.2167,288.7971,88.7008,271.4136,0.0024943,0.00039627,0.0,0 STARLINK-4164,1 53282U 22086AS  24134.82958718  .00039627  00000-0  24943-2 0  9991,2 53282  53.2167 288.7971 0001323  88.7008 271.4136 15.08835484100650,6917.894,95.438,540.674,538.844,0.0
53282.0,STARLINK-4164,PAYLOAD,2024-05-14 10:13:02,15.08865854,7.96e-05,53.2154,286.1188,103.824,256.284,0.002025,0.0003211,0.0,0 STARLINK-4164,1 53282U 22086AS  24135.42572673  .00032110  00000-0  20250-2 0  9997,2 53282  53.2154 286.1188 0000796 103.8240 256.2840 15.08865854100914,6917.801,95.436,540.217,539.116,0.0
53282.0,STARLINK-4164,PAYLOAD,2024-05-14 16:34:33,15.08906955,0.0001399,53.2159,284.9297,91.0536,269.0617,0.0016648,0.00026355,0.0,0 STARLINK-4164,1 53282U 22086AS  24135.69066605  .00026355  00000-0  16648-2 0  9999,2 53282  53.2159 284.9297 0001399  91.0536 269.0617 15.08906955100789,6917.676,95.433,540.509,538.573,0.0
53282.0,STARLINK-4164,PAYLOAD,2024-05-15 13:14:31,15.08893557,0.0001064,53.2154,281.06,97.7122,262.3991,2.1971e-05,6.2e-07,0.0,0 STARLINK-4164,1 53282U 22086AS  24136.55175313  .00000062  00000-0  21971-4 0  9996,2 53282  53.2154 281.0600 0001064  97.7122 262.3991 15.08893557100912,6917.717,95.434,540.318,538.846,0.0
53282.0,STARLINK-4164,PAYLOAD,2024-05-15 14:49:54,15.08890116,8.01e-05,53.2155,280.7657,49.6769,310.4293,1.7389e-05,-1.1e-07,0.0,0 STARLINK-4164,1 53282U 22086AS  24136.61799240 -.00000011  00000-0  17389-4 0  9997,2 53282  53.2155 280.7657 0000801  49.6769 310.4293 15.08890116101090,6917.727,95.434,540.146,539.038,0.0
53282.0,STARLINK-4164,PAYLOAD,2024-05-15 19:36:03,15.0888986,7.82e-05,53.2161,279.8733,57.0935,303.0133,0.00062304,9.655e-05,0.0,0 STARLINK-4164,1 53282U 22086AS  24136.81670672  .00009655  00000-0  62304-3 0  9994,2 53282  53.2161 279.8733 0000782  57.0935 303.0133 15.08889860101126,6917.728,95.434,540.134,539.052,0.0
53282.0,STARLINK-4164,PAYLOAD,2024-05-16 09:54:31,15.08854747,0.0001262,53.2143,277.196,97.0466,263.0669,0.0010652,0.00016712,0.0,0 STARLINK-4164,1 53282U 22086AS  24137.41286987  .00016712  00000-0  10652-2 0  9993,2 53282  53.2143 277.1960 0001262  97.0466 263.0669 15.08854747101042,6917.835,95.437,540.573,538.827,0.0
53282.0,STARLINK-4164,PAYLOAD,2024-05-16 19:26:49,15.08895494,8.77e-05,53.2162,275.4137,51.1831,308.924,0.0027773,0.00044258,0.0,0 STARLINK-4164,1 53282U 22086AS  24137.81029979  .00044258  00000-0  27773-2 0  9991,2 53282  53.2162 275.4137 0000877  51.1831 308.9240 15.08895494101103,6917.711,95.434,540.182,538.969,0.0
53282.0,STARLINK-4164,PAYLOAD,2024-05-17 01:48:22,15.08854552,0.0001297,53.2163,274.2229,58.9012,301.2107,0.0002924,4.371e-05,0.0,0 STARLINK-4164,1 53282U 22086AS  24138.07526370  .00004371  00000-0  29240-3 0  9991,2 53282  53.2163 274.2229 0001297  58.9012 301.2107 15.08854552101148,6917.836,95.437,540.598,538.804,0.0
53282.0,STARLINK-4164,PAYLOAD,2024-05-17 09:45:18,15.08842993,0.0001285,53.2161,272.7377,78.5207,281.593,-0.00042416,-7.033e-05,0.0,0 STARLINK-4164,1 53282U 22086AS  24138.40646384 -.00007033  00000-0 -42416-3 0  9996,2 53282  53.2161 272.7377 0001285  78.5207 281.5930 15.08842993101199,6917.871,95.437,540.625,538.847,0.0
53282.0,STARLINK-4164,PAYLOAD,2024-05-17 17:42:14,15.08860671,0.0001264,53.2153,271.2521,74.4439,285.6693,0.0019436,0.00030797,0.0,0 STARLINK-4164,1 53282U 22086AS  24138.73766244  .00030797  00000-0  19436-2 0  9996,2 53282  53.2153 271.2521 0001264  74.4439 285.6693 15.08860671101244,6917.817,95.436,540.557,538.808,0.0
53282.0,STARLINK-4164,PAYLOAD,2024-05-18 01:39:09,15.08847278,0.0001878,53.2157,269.763,79.1819,280.9385,0.0007012,0.00010891,0.0,0 STARLINK-4164,1 53282U 22086AS  24139.06886544  .00010891  00000-0  70120-3 0  9990,2 53282  53.2157 269.7630 0001878  79.1819 280.9385 15.08847278101295,6917.858,95.437,541.022,538.424,0.0
53282.0,STARLINK-4164,PAYLOAD,2024-05-18 14:22:14,15.08864223,0.0001085,53.2155,267.3845,88.2203,271.8914,0.0021238,0.00033697,0.0,0 STARLINK-4164,1 53282U 22086AS  24139.59878175  .00033697  00000-0  21238-2 0  9993,2 53282  53.2155 267.3845 0001085  88.2203 271.8914 15.08864223101547,6917.806,95.436,540.422,538.921,0.0
53282.0,STARLINK-4164,PAYLOAD,2024-05-18 17:33:00,15.08886558,9e-05,53.2149,266.7896,89.7406,270.369,0.0035369,0.00056525,0.0,0 STARLINK-4164,1 53282U 22086AS  24139.73125847  .00056525  00000-0  35369-2 0  9995,2 53282  53.2149 266.7896 0000900  89.7406 270.3690 15.08886558101398,6917.738,95.435,540.226,538.98,0.0
53282.0,STARLINK-4164,PAYLOAD,2024-05-19 01:29:57,15.08844863,0.0003965,53.2144,265.3024,64.5982,295.542,0.0033445,0.00053356,0.0,0 STARLINK-4164,1 53282U 22086AS  24140.06247266  .00053356  00000-0  33445-2 0  9995,2 53282  53.2144 265.3024 0003965  64.5982 295.5420 15.08844863101444,6917.866,95.437,542.473,536.988,0.0
53282.0,STARLINK-4164,PAYLOAD,2024-05-19 14:13:03,15.08800976,0.0001147,53.2142,262.9243,45.1243,314.9842,0.0030103,0.00047895,0.0,0 STARLINK-4164,1 53282U 22086AS  24140.59240047  .00047895  00000-0  30103-2 0  9992,2 53282  53.2142 262.9243 0001147  45.1243 314.9842 15.08800976101691,6918.0,95.44,540.658,539.071,0.0
53282.0,STARLINK-4164,PAYLOAD,2024-05-20 12:28:27,15.08808921,0.0001884,53.2148,258.7602,29.5873,330.5225,0.0031071,0.00049467,0.0,0 STARLINK-4164,1 53282U 22086AS  24141.51975895  .00049467  00000-0  31071-2 0  9993,2 53282  53.2148 258.7602 0001884  29.5873 330.5225 15.08808921101666,6917.975,95.44,541.144,538.537,0.0
53282.0,STARLINK-4164,PAYLOAD,2024-05-20 14:03:50,15.08814374,0.0001805,53.2148,258.4625,37.1601,322.9516,0.0029619,0.00047133,0.0,0 STARLINK-4164,1 53282U 22086AS  24141.58599991  .00047133  00000-0  29619-2 0  9992,2 53282  53.2148 258.4625 0001805  37.1601 322.9516 15.08814374101842,6917.959,95.439,541.072,538.575,0.0
53282.0,STARLINK-4164,PAYLOAD,2024-05-21 12:19:14,15.08850658,0.0001452,53.216,254.3014,73.3182,286.7969,0.0016631,0.00026287,0.0,0 STARLINK-4164,1 53282U 22086AS  24142.51336626  .00026287  00000-0  16631-2 0  9997,2 53282  53.2160 254.3014 0001452  73.3182 286.7969 15.08850658101818,6917.848,95.437,540.717,538.708,0.0
